{
 "geometry": {
  "coordinates": [
   [
    -122.956087,
    49.16943
   ],
   [
    -122.958526,
    49.168691
   ],
   [
    -122.958868,
    49.168588
   ],
   [
    -122.962848,
    49.167386
   ],
   [
    -122.963333,
    49.167188
   ],
   [
    -122.963687,
    49.166967
   ],
   [
    -122.963951,
    49.166742
   ],
   [
    -122.964649,
    49.166149
   ],
   [
    -122.964976,
    49.165872
   ],
   [
    -122.965318,
    49.165628
   ],
   [
    -122.965489,
    49.165508
   ],
   [
    -122.965767,
    49.165361
   ],
   [
    -122.967653,
    49.164867
   ],
   [
    -122.968683,
    49.1646
   ],
   [
    -122.971418,
    49.163891
   ],
   [
    -122.971419,
    49.163891
   ],
   [
    -122.971964,
    49.163616
   ],
   [
    -122.972113,
    49.16332
   ],
   [
    -122.972184,
    49.16234
   ],
   [
    -122.972234,
    49.161637
   ]
  ],
  "type": "LineString"
 },
 "id": "322477",
 "properties": {
  "id": "322477",
  "stroke-width": 3.0
 },
 "type": "Feature"
}